{
  "norad_id": 66527,
  "name": "STARLINK-35935",
  "history": [
    {
      "epoch": "2026-03-28T22:16:24.153312Z",
      "apogee_km": 484.38722063639307,
      "perigee_km": 481.5367084605814,
      "latitude_deg": -1.234981365474672e-05,
      "longitude_deg": 9.020477048154975,
      "height_km": 482.8372644269961,
      "semi_major_axis_km": 6861.098964548487,
      "eccentricity": 0.00020773,
      "inclination_deg": 43.0022,
      "raan_deg": 169.4626,
      "arg_perigee_deg": 266.0636,
      "mean_anomaly_deg": 93.9978,
      "mean_motion_rev_day": 15.27609099
    },
    {
      "epoch": "2026-03-29T04:33:02.158848Z",
      "apogee_km": 483.1682304075657,
      "perigee_km": 482.8018464907127,
      "latitude_deg": -3.0282878333862226e-06,
      "longitude_deg": -86.8731657631219,
      "height_km": 482.6196169616462,
      "semi_major_axis_km": 6861.122038449139,
      "eccentricity": 2.67e-05,
      "inclination_deg": 43.0,
      "raan_deg": 167.9851,
      "arg_perigee_deg": 320.3352,
      "mean_anomaly_deg": 39.748,
      "mean_motion_rev_day": 15.27601393
    },
    {
      "epoch": "2026-03-29T21:48:44.986464Z",
      "apogee_km": 484.45548716939084,
      "perigee_km": 481.5160449539544,
      "latitude_deg": -3.317018552456512e-07,
      "longitude_deg": 9.428168176820806,
      "height_km": 482.6404195818798,
      "semi_major_axis_km": 6861.122766061672,
      "eccentricity": 0.00021421,
      "inclination_deg": 43.002,
      "raan_deg": 163.9238,
      "arg_perigee_deg": 274.7951,
      "mean_anomaly_deg": 85.2656,
      "mean_motion_rev_day": 15.2760115
    },
    {
      "epoch": "2026-03-30T11:56:10.279680Z",
      "apogee_km": 483.9727550226753,
      "perigee_km": 482.10555454391215,
      "latitude_deg": 3.0764492617315827e-08,
      "longitude_deg": 153.66954134178349,
      "height_km": 482.7581150151061,
      "semi_major_axis_km": 6861.176154783294,
      "eccentricity": 0.00013607,
      "inclination_deg": 43.0024,
      "raan_deg": 160.6006,
      "arg_perigee_deg": 273.5607,
      "mean_anomaly_deg": 86.5089,
      "mean_motion_rev_day": 15.2758332
    },
    {
      "epoch": "2026-03-30T21:21:06.789888Z",
      "apogee_km": 483.7251953333662,
      "perigee_km": 482.35337174723554,
      "latitude_deg": 6.158309045853572e-05,
      "longitude_deg": 9.830359291051916,
      "height_km": 482.61304535754925,
      "semi_major_axis_km": 6861.176283540301,
      "eccentricity": 9.997e-05,
      "inclination_deg": 42.9997,
      "raan_deg": 158.3835,
      "arg_perigee_deg": 287.1752,
      "mean_anomaly_deg": 72.8991,
      "mean_motion_rev_day": 15.27583277
    },
    {
      "epoch": "2026-03-31T20:53:26.431584Z",
      "apogee_km": 484.90156980440315,
      "perigee_km": 480.95371320968115,
      "latitude_deg": -4.541097950596884e-06,
      "longitude_deg": 10.242345994903289,
      "height_km": 482.4382907434532,
      "semi_major_axis_km": 6861.064641507042,
      "eccentricity": 0.0002877,
      "inclination_deg": 43.0081,
      "raan_deg": 152.8441,
      "arg_perigee_deg": 277.8045,
      "mean_anomaly_deg": 82.248,
      "mean_motion_rev_day": 15.27620562
    },
    {
      "epoch": "2026-04-01T20:25:48.312768Z",
      "apogee_km": 484.0767158984909,
      "perigee_km": 481.99503604792153,
      "latitude_deg": -1.2071269635988916e-05,
      "longitude_deg": 10.64553831799813,
      "height_km": 482.4567353563401,
      "semi_major_axis_km": 6861.172875973206,
      "eccentricity": 0.0001517,
      "inclination_deg": 43.0002,
      "raan_deg": 147.3052,
      "arg_perigee_deg": 289.997,
      "mean_anomaly_deg": 70.0718,
      "mean_motion_rev_day": 15.27584415
    },
    {
      "epoch": "2026-04-02T19:58:08.796864Z",
      "apogee_km": 483.55386141110284,
      "perigee_km": 482.4038011754619,
      "latitude_deg": 2.035738160857826e-05,
      "longitude_deg": 11.055109925460293,
      "height_km": 482.426973748863,
      "semi_major_axis_km": 6861.115831293282,
      "eccentricity": 8.381e-05,
      "inclination_deg": 43.0018,
      "raan_deg": 141.7668,
      "arg_perigee_deg": 304.8,
      "mean_anomaly_deg": 55.2773,
      "mean_motion_rev_day": 15.27603466
    },
    {
      "epoch": "2026-04-03T11:39:41.596704Z",
      "apogee_km": 483.8701202394086,
      "perigee_km": 481.9579453165743,
      "latitude_deg": 3.479671990111652e-05,
      "longitude_deg": 131.33069361346986,
      "height_km": 482.5196770115288,
      "semi_major_axis_km": 6861.051032777991,
      "eccentricity": 0.00013935,
      "inclination_deg": 43.0011,
      "raan_deg": 138.0735,
      "arg_perigee_deg": 280.3135,
      "mean_anomaly_deg": 79.756,
      "mean_motion_rev_day": 15.27625107
    },
    {
      "epoch": "2026-04-04T11:12:03.661920Z",
      "apogee_km": 484.08062200243694,
      "perigee_km": 482.08345836421995,
      "latitude_deg": -3.3768985907295143e-06,
      "longitude_deg": 131.7328826467722,
      "height_km": 483.02010522505134,
      "semi_major_axis_km": 6861.219040183328,
      "eccentricity": 0.00014554,
      "inclination_deg": 43.0009,
      "raan_deg": 132.5344,
      "arg_perigee_deg": 260.707,
      "mean_anomaly_deg": 99.3617,
      "mean_motion_rev_day": 15.27568998
    },
    {
      "epoch": "2026-04-05T10:44:25.512000Z",
      "apogee_km": 483.9926704816471,
      "perigee_km": 482.1087255635239,
      "latitude_deg": 1.4722129556219997e-05,
      "longitude_deg": 132.13602971756202,
      "height_km": 482.9560727048173,
      "semi_major_axis_km": 6861.187698022585,
      "eccentricity": 0.00013729,
      "inclination_deg": 43.0009,
      "raan_deg": 126.9953,
      "arg_perigee_deg": 262.1518,
      "mean_anomaly_deg": 97.9178,
      "mean_motion_rev_day": 15.27579465
    },
    {
      "epoch": "2026-04-05T18:35:12.516288Z",
      "apogee_km": 483.8727457601235,
      "perigee_km": 482.2054799646967,
      "latitude_deg": -2.923603634233831e-05,
      "longitude_deg": 12.271991262328164,
      "height_km": 482.98872561908155,
      "semi_major_axis_km": 6861.176112862409,
      "eccentricity": 0.0001215,
      "inclination_deg": 42.9991,
      "raan_deg": 125.1494,
      "arg_perigee_deg": 258.0078,
      "mean_anomaly_deg": 102.0637,
      "mean_motion_rev_day": 15.27583334
    },
    {
      "epoch": "2026-04-06T02:25:59.312352Z",
      "apogee_km": 483.7617264326618,
      "perigee_km": 482.24088651564944,
      "latitude_deg": 1.870975312461838e-06,
      "longitude_deg": -107.59029723333506,
      "height_km": 483.0144672369858,
      "semi_major_axis_km": 6861.138306474156,
      "eccentricity": 0.00011083,
      "inclination_deg": 43.0012,
      "raan_deg": 123.3043,
      "arg_perigee_deg": 251.8674,
      "mean_anomaly_deg": 108.2057,
      "mean_motion_rev_day": 15.2759596
    },
    {
      "epoch": "2026-04-07T11:23:15.474624Z",
      "apogee_km": 483.92485270773705,
      "perigee_km": 482.0429844621867,
      "latitude_deg": -5.4974909889964926e-05,
      "longitude_deg": 108.98370293247835,
      "height_km": 482.81986098279157,
      "semi_major_axis_km": 6861.120918584961,
      "eccentricity": 0.00013714,
      "inclination_deg": 43.0017,
      "raan_deg": 115.5491,
      "arg_perigee_deg": 266.4,
      "mean_anomaly_deg": 93.6694,
      "mean_motion_rev_day": 15.27601767
    },
    {
      "epoch": "2026-04-08T09:21:26.979840Z",
      "apogee_km": 484.39881536156827,
      "perigee_km": 481.5777950810734,
      "latitude_deg": 5.701083182333542e-05,
      "longitude_deg": 133.36511100852482,
      "height_km": 482.7257815072423,
      "semi_major_axis_km": 6861.125305221321,
      "eccentricity": 0.00020558,
      "inclination_deg": 43.0035,
      "raan_deg": 110.3806,
      "arg_perigee_deg": 271.6302,
      "mean_anomaly_deg": 88.4315,
      "mean_motion_rev_day": 15.27600302
    },
    {
      "epoch": "2026-04-09T01:03:01.473984Z",
      "apogee_km": 484.0727011946874,
      "perigee_km": 482.1323426578874,
      "latitude_deg": 3.7366677961031396e-06,
      "longitude_deg": -106.36625852932193,
      "height_km": 483.2196207396106,
      "semi_major_axis_km": 6861.239521926287,
      "eccentricity": 0.0001414,
      "inclination_deg": 43.0017,
      "raan_deg": 106.6875,
      "arg_perigee_deg": 249.4651,
      "mean_anomaly_deg": 110.6049,
      "mean_motion_rev_day": 15.27562158
    },
    {
      "epoch": "2026-04-10T08:26:08.658240Z",
      "apogee_km": 484.0684808251199,
      "perigee_km": 481.73435555525157,
      "latitude_deg": -5.277719727299777e-05,
      "longitude_deg": 134.17649352183693,
      "height_km": 482.7109102844808,
      "semi_major_axis_km": 6861.038418190185,
      "eccentricity": 0.0001701,
      "inclination_deg": 42.9996,
      "raan_deg": 99.2992,
      "arg_perigee_deg": 268.3995,
      "mean_anomaly_deg": 91.6661,
      "mean_motion_rev_day": 15.2762932
    },
    {
      "epoch": "2026-04-11T15:49:16.951008Z",
      "apogee_km": 483.5108274446011,
      "perigee_km": 482.6078940035295,
      "latitude_deg": -1.5202228920125663e-05,
      "longitude_deg": 14.718415516261853,
      "height_km": 482.41433011071666,
      "semi_major_axis_km": 6861.196360724065,
      "eccentricity": 6.58e-05,
      "inclination_deg": 43.0009,
      "raan_deg": 91.9146,
      "arg_perigee_deg": 338.7743,
      "mean_anomaly_deg": 21.3081,
      "mean_motion_rev_day": 15.27576572
    },
    {
      "epoch": "2026-04-13T07:03:11.330496Z",
      "apogee_km": 483.8517917423933,
      "perigee_km": 482.2184211107369,
      "latitude_deg": 2.9804792182705143e-05,
      "longitude_deg": 135.40118981544975,
      "height_km": 482.75397545988994,
      "semi_major_axis_km": 6861.172106426565,
      "eccentricity": 0.00011903,
      "inclination_deg": 43.0022,
      "raan_deg": 82.6851,
      "arg_perigee_deg": 274.0657,
      "mean_anomaly_deg": 86.0059,
      "mean_motion_rev_day": 15.27584672
    }
  ]
}